JCSAT-18 (KACIFIC 1)    
1 44868U 19091A   26193.19628200 -.00000198  00000+0  00000+0 0  9996
2 44868   0.0520 228.2611 0000553  16.3362 266.1531  1.00271727 24260
ELEKTRO-L 3             
1 44903U 19095A   26193.14747042 -.00000094  00000+0  00000+0 0  9996
2 44903   0.3175  82.1715 0001162  19.8528 317.0980  1.00271176 23957
SHIJIAN-20 (SJ-20)      
1 44910U 19097A   26193.02281948  .00000134  00000+0  00000+0 0  9995
2 44910   4.9791  74.7589 0015270  57.1254 211.0734  1.00267560 23942
TJS-5                   
1 44978U 20002A   26193.08527595 -.00000339  00000+0  00000+0 0  9992
2 44978   0.0550  73.8544 0007685 340.4174  13.9144  1.00269635 23957
GSAT-30                 
1 45026U 20005A   26193.14558608 -.00000162  00000+0  00000+0 0  9990
2 45026   0.0400  92.2688 0003200   1.7492 331.4287  1.00270519 23756
EUTELSAT KONNECT        
1 45027U 20005B   26193.20793543  .00000051  00000+0  00000+0 0  9993
2 45027   0.0677  93.4369 0001961 147.8036 130.9282  1.00267779 24583
JCSAT-17                
1 45245U 20013A   26193.30476566 -.00000310  00000+0  00000+0 0  9997
2 45245   5.3921 357.0985 0002836 128.5637  50.2658  1.00270083 23484
GEO-KOMPSAT-2B          
1 45246U 20013B   26193.30320566 -.00000342  00000+0  00000+0 0  9991
2 45246   0.0494 226.2538 0000744  11.5139 289.8411  1.00271284 23534
BEIDOU-3 G2             
1 45344U 20017A   26193.07978821 -.00000139  00000+0  00000+0 0  9995
2 45344   2.9118  47.6753 0002035  59.8730 291.1996  1.00269470 23503
AEHF-6 (USA 298)        
1 45465U 20022B   26193.30502566 -.00000292  00000+0  00000+0 0  9990
2 45465   2.4949 301.4626 0042082  15.3838 220.9254  1.00272252 23268
BEIDOU-3 G3             
1 45807U 20040A   26193.29965231 -.00000353  00000+0  00000+0 0  9998
2 45807   2.5053  67.4742 0001746 327.4219 113.6211  1.00265303 22321
APSTAR-6D               
1 45863U 20045A   26193.30433233 -.00000316  00000+0  00000+0 0  9998
2 45863   0.0439  92.1428 0001221  21.2442  60.3852  1.00269323 22117
KOREASAT 116            
1 45920U 20048A   26193.30086565 -.00000360  00000+0  00000+0 0  9996
2 45920   0.0137  32.3317 0000734  90.4950  31.8769  1.00268045 21893
EXPRESS 103             
1 45985U 20053A   26192.64664731 -.00000275  00000+0  00000+0 0  9991
2 45985   0.0297 266.1445 0001082 206.0138 146.6841  1.00270707 21894
EXPRESS 80              
1 45986U 20053B   26192.97264968  .00000000  00000+0  00000+0 0  9991
2 45986   0.0207  33.2090 0001734 167.5948 159.1891  1.00271327 21870
BSAT-4B                 
1 46112U 20056A   26193.07683522 -.00000347  00000+0  00000+0 0  9994
2 46112   0.0462 187.8681 0004140 303.4167 296.1750  1.00269762 21635
MEV-2                   
1 46113U 20056B   26192.99250764 -.00000008  00000+0  00000+0 0  9997
2 46113   0.0519 255.9518 0000592 328.8445  61.3886  1.00270427 80897
GALAXY 30 (G-30)        
1 46114U 20056C   26193.28226571  .00000039  00000+0  00000+0 0  9993
2 46114   0.0034 103.9227 0001947  10.6096 152.2522  1.00270910 21543
GAOFEN-13 01            
1 46610U 20071A   26193.30112565 -.00000361  00000+0  00000+0 0  9990
2 46610   0.4603  86.1739 0045225 120.5671 310.0932  1.00267087 21176
TIANTONG-1 2            
1 46916U 20082A   26193.30259899 -.00000353  00000+0  00000+0 0  9994
2 46916   0.7613 331.2015 0001294 143.7567  49.0979  1.00267973 20903
LUCAS (JDRS-1)          
1 47202U 20089A   26193.14558608 -.00000233  00000+0  00000+0 0  9999
2 47202   0.0375 278.2699 0001612 184.7924 330.1948  1.00271398 20663
SXM-7                   
1 47240U 20096A   26193.04562976 -.00000202  00000+0  00000+0 0  9997
2 47240   0.0237  96.2943 0003479  24.5554 100.3647  1.00271373  7699
CMS-01                  
1 47256U 20099A   26193.14558608 -.00000162  00000+0  00000+0 0  9990
2 47256   0.0670  91.3196 0003492 176.2738 157.8536  1.00271208 20446
TURKSAT 5A              
1 47306U 21001A   26193.21261545  .00000157  00000+0  00000+0 0  9992
2 47306   0.0137  55.8454 0000285 199.3885 142.3395  1.00273205 20214
TIANTONG-1 3            
1 47321U 21003A   26193.08004821 -.00000149  00000+0  00000+0 0  9990
2 47321   1.7379 340.8034 0003073 139.5431 279.9935  1.00270850 20219
TJS-6                   
1 47613U 21010A   26193.32475438  .00000045  00000+0  00000+0 0  9999
2 47613   0.1892 262.1172 0003085 239.0312  84.4362  1.00271814 20058
SBIRS GEO-5 (USA 315)   
1 48618U 21042A   26193.29635896 -.00000260  00000+0  00000+0 0  9992
2 48618   5.0727 329.3070 0001411 156.8689   4.5121  1.00270497 19029
FENGYUN 4B              
1 48808U 21047A   26193.29852564 -.00000327  00000+0  00000+0 0  9995
2 48808   0.2124  79.6496 0005758 272.9598 149.6238  1.00264224 18820
SXM-8                   
1 48838U 21049A   26193.11834199 -.00000202  00000+0  00000+0 0  9997
2 48838   0.0175  40.4195 0005364 350.2379 216.8129  1.00270972 18833
TIANLIAN 1-05           
1 49011U 21063A   26193.28110556  .00000108  00000+0  00000+0 0  9993
2 49011   1.6560  80.4869 0000946  91.8485 235.8831  1.00271778 18321
STAR ONE D2             
1 49055U 21069A   26193.05009144  .00000000  00000+0  00000+0 0  9993
2 49055   0.0120  19.9764 0001988 106.4911 111.4317  1.00274120 18196
EUTELSAT QUANTUM        
1 49056U 21069B   26193.21599547  .00000129  00000+0  00000+0 0  9995
2 49056   0.0182 326.4283 0001984 141.1209 308.0071  1.00269809 18176
