OBJECT_NAME,OBJECT_ID,EPOCH,MEAN_MOTION,ECCENTRICITY,INCLINATION,RA_OF_ASC_NODE,ARG_OF_PERICENTER,MEAN_ANOMALY,EPHEMERIS_TYPE,CLASSIFICATION_TYPE,NORAD_CAT_ID,ELEMENT_SET_NO,REV_AT_EPOCH,BSTAR,MEAN_MOTION_DOT,MEAN_MOTION_DDOT
JCSAT-18 (KACIFIC 1),2019-091A,2026-07-12T04:42:38.764800,1.00271727,.0000553,0.0520,228.2611,16.3362,266.1531,0,U,44868,999,2426,0,-.198E-5,0
ELEKTRO-L 3,2019-095A,2026-07-12T03:32:21.444288,1.00271176,.00011629,0.3175,82.1715,19.8528,317.0980,0,U,44903,999,2395,0,-.94E-6,0
SHIJIAN-20 (SJ-20),2019-097A,2026-07-12T00:32:51.603072,1.00267560,.001527,4.9791,74.7589,57.1254,211.0734,0,U,44910,999,2394,0,.134E-5,0
TJS-5,2020-002A,2026-07-12T02:02:47.842080,1.00269635,.0007685,0.0550,73.8544,340.4174,13.9144,0,U,44978,999,2395,0,-.339E-5,0
GSAT-30,2020-005A,2026-07-12T03:29:38.637312,1.00270519,.00032004,0.0400,92.2688,1.7492,331.4287,0,U,45026,999,2375,0,-.162E-5,0
EUTELSAT KONNECT,2020-005B,2026-07-12T04:59:25.621152,1.00267779,.00019613,0.0677,93.4369,147.8036,130.9282,0,U,45027,999,2458,0,.51E-6,0
JCSAT-17,2020-013A,2026-07-12T07:18:51.753024,1.00270083,.00028366,5.3921,357.0985,128.5637,50.2658,0,U,45245,999,2348,0,-.31E-5,0
GEO-KOMPSAT-2B,2020-013B,2026-07-12T07:16:36.969024,1.00271284,.00007444,0.0494,226.2538,11.5139,289.8411,0,U,45246,999,2353,0,-.342E-5,0
BEIDOU-3 G2,2020-017A,2026-07-12T01:54:53.701344,1.00269470,.0002035,2.9118,47.6753,59.8730,291.1996,0,U,45344,999,2350,0,-.139E-5,0
AEHF-6 (USA 298),2020-022B,2026-07-12T07:19:14.217024,1.00272252,.00420822,2.4949,301.4626,15.3838,220.9254,0,U,45465,999,2326,0,-.292E-5,0
BEIDOU-3 G3,2020-040A,2026-07-12T07:11:29.959584,1.00265303,.00017468,2.5053,67.4742,327.4219,113.6211,0,U,45807,999,2232,0,-.353E-5,0
APSTAR-6D,2020-045A,2026-07-12T07:18:14.313312,1.00269323,.00012219,0.0439,92.1428,21.2442,60.3852,0,U,45863,999,2211,0,-.316E-5,0
KOREASAT 116,2020-048A,2026-07-12T07:13:14.792160,1.00268045,.00007345,0.0137,32.3317,90.4950,31.8769,0,U,45920,999,2189,0,-.36E-5,0
EXPRESS 103,2020-053A,2026-07-11T15:31:10.327584,1.00270707,.00010829,0.0297,266.1445,206.0138,146.6841,0,U,45985,999,2189,0,-.275E-5,0
EXPRESS 80,2020-053B,2026-07-11T23:20:36.932352,1.00271327,.00017347,0.0207,33.2090,167.5948,159.1891,0,U,45986,999,2187,0,0,0
BSAT-4B,2020-056A,2026-07-12T01:50:38.563008,1.00269762,.00041405,0.0462,187.8681,303.4167,296.1750,0,U,46112,999,2163,0,-.347E-5,0
MEV-2,2020-056B,2026-07-11T23:49:12.660096,1.00270427,.00005927,0.0519,255.9518,328.8445,61.3886,0,U,46113,999,8089,0,-.8E-7,0
GALAXY 30 (G-30),2020-056C,2026-07-12T06:46:27.757344,1.00270910,.00019471,0.0034,103.9227,10.6096,152.2522,0,U,46114,999,2154,0,.39E-6,0
GAOFEN-13 01,2020-071A,2026-07-12T07:13:37.256160,1.00267087,.00452258,0.4603,86.1739,120.5671,310.0932,0,U,46610,999,2117,0,-.361E-5,0
TIANTONG-1 2,2020-082A,2026-07-12T07:15:44.552736,1.00267973,.00012945,0.7613,331.2015,143.7567,49.0979,0,U,46916,999,2090,0,-.353E-5,0
LUCAS (JDRS-1),2020-089A,2026-07-12T03:29:38.637312,1.00271398,.00016121,0.0375,278.2699,184.7924,330.1948,0,U,47202,999,2066,0,-.233E-5,0
SXM-7,2020-096A,2026-07-12T01:05:42.411264,1.00271373,.00034799,0.0237,96.2943,24.5554,100.3647,0,U,47240,999,769,0,-.202E-5,0
CMS-01,2020-099A,2026-07-12T03:29:38.637312,1.00271208,.0003492,0.0670,91.3196,176.2738,157.8536,0,U,47256,999,2044,0,-.162E-5,0
TURKSAT 5A,2021-001A,2026-07-12T05:06:09.974880,1.00273205,.00002859,0.0137,55.8454,199.3885,142.3395,0,U,47306,999,2021,0,.157E-5,0
TIANTONG-1 3,2021-003A,2026-07-12T01:55:16.165344,1.00270850,.00030733,1.7379,340.8034,139.5431,279.9935,0,U,47321,999,2021,0,-.149E-5,0
TJS-6,2021-010A,2026-07-12T07:47:38.778432,1.00271814,.00030857,0.1892,262.1172,239.0312,84.4362,0,U,47613,999,2005,0,.45E-6,0
SBIRS GEO-5 (USA 315),2021-042A,2026-07-12T07:06:45.414144,1.00270497,.00014119,5.0727,329.3070,156.8689,4.5121,0,U,48618,999,1902,0,-.26E-5,0
FENGYUN 4B,2021-047A,2026-07-12T07:09:52.615296,1.00264224,.00057588,0.2124,79.6496,272.9598,149.6238,0,U,48808,999,1882,0,-.327E-5,0
SXM-8,2021-049A,2026-07-12T02:50:24.747936,1.00270972,.00053645,0.0175,40.4195,350.2379,216.8129,0,U,48838,999,1883,0,-.202E-5,0
TIANLIAN 1-05,2021-063A,2026-07-12T06:44:47.520384,1.00271778,.00009462,1.6560,80.4869,91.8485,235.8831,0,U,49011,999,1832,0,.108E-5,0
STAR ONE D2,2021-069A,2026-07-12T01:12:07.900416,1.00274120,.0001988,0.0120,19.9764,106.4911,111.4317,0,U,49055,999,1819,0,0,0
EUTELSAT QUANTUM,2021-069B,2026-07-12T05:11:02.008608,1.00269809,.00019842,0.0182,326.4283,141.1209,308.0071,0,U,49056,999,1817,0,.129E-5,0
